IRIDIUM 106             
1 41917U 17003A   25134.85678668  .00000053  00000+0  11763-4 0  9991
2 41917  86.3964 254.9291 0002688 100.2340 259.9159 14.34217823436116
IRIDIUM 103             
1 41918U 17003B   25134.84409972  .00000021  00000+0  30613-6 0  9993
2 41918  86.3964 254.8353 0001999 110.4581 249.6830 14.34217706436133
IRIDIUM 109             
1 41919U 17003C   25134.92021111  .00000032  00000+0  43335-5 0  9994
2 41919  86.3965 254.8563 0002007  96.4270 263.7155 14.34217785436119
IRIDIUM 102             
1 41920U 17003D   25134.81873015  .00000002  00000+0 -63142-5 0  9998
2 41920  86.3963 254.8311 0002128  91.5506 268.5933 14.34217563436180
IRIDIUM 105             
1 41921U 17003E   25134.78946813  .00000310  00000+0  10351-3 0  9995
2 41921  86.4010 223.2950 0002111 100.9607 259.1826 14.34216592438037
IRIDIUM 104             
1 41922U 17003F   25134.83141422  .00000043  00000+0  81520-5 0  9996
2 41922  86.3965 254.8621 0001774  99.2092 260.9305 14.34217864436171
IRIDIUM 114             
1 41923U 17003G   25134.83775770  .00000032  00000+0  44617-5 0  9990
2 41923  86.3964 254.8440 0002171 102.9268 257.2170 14.34217753436153
IRIDIUM 108             
1 41924U 17003H   25134.72650952  .00000246  00000+0  80697-4 0  9997
2 41924  86.4005 223.2245 0002486  94.8133 265.3346 14.34216258437990
